{
"type": "FeatureCollection",
"name": "draling",
"crs": { "type": "name", "properties": { "name": "urn:ogc:def:crs:OGC:1.3:CRS84" } },
"features": [
{ "type": "Feature", "properties": { "ID": "DRLG_6" }, "geometry": { "type": "LineString", "coordinates": [ [ 110.813391686028439, -7.536233699758396 ], [ 110.813199168945687, -7.536208687700467 ], [ 110.812905305524978, -7.536165857418577 ], [ 110.812689964313876, -7.536131355245899 ], [ 110.812606683182594, -7.536120647675929 ], [ 110.812453207955016, -7.536103991457447 ], [ 110.812252143509227, -7.536073058475418 ], [ 110.811974936315096, -7.536036176845214 ], [ 110.811801235669904, -7.536012382244757 ], [ 110.811546633354283, -7.535981449265737 ], [ 110.811261098047183, -7.535946947096953 ], [ 110.810982701122569, -7.535908875736281 ], [ 110.810839933469808, -7.535902927091668 ], [ 110.810647735772363, -7.535919731279392 ] ] } },
{ "type": "Feature", "properties": { "ID": "DRLG_10" }, "geometry": { "type": "LineString", "coordinates": [ [ 110.801837837594292, -7.54789617584788 ], [ 110.801618837356912, -7.548290176020968 ], [ 110.801499837248485, -7.548503175945585 ], [ 110.801404927084718, -7.548670465995815 ], [ 110.801178401751372, -7.548928844198941 ], [ 110.800994113984885, -7.549129801246644 ], [ 110.80081942660027, -7.549315445182766 ], [ 110.800729837623138, -7.549443176092615 ], [ 110.800625837310676, -7.549593175810735 ], [ 110.800606837331543, -7.549619176109563 ], [ 110.800573837604176, -7.549667175623664 ], [ 110.800498837733528, -7.549773176011905 ], [ 110.800416837537753, -7.549924175777003 ], [ 110.800308837037733, -7.550143175978756 ], [ 110.800201099688962, -7.550410357201079 ], [ 110.800062848093646, -7.550637182977903 ], [ 110.799966837405094, -7.550785175891552 ], [ 110.799908837421583, -7.550857175612058 ], [ 110.799785837130045, -7.551031176436066 ], [ 110.799771837382025, -7.551051175559088 ], [ 110.799724837007005, -7.551127176363742 ], [ 110.79970883716544, -7.551175175878545 ], [ 110.79962980509822, -7.55144689219178 ], [ 110.799586620723005, -7.551475592510998 ] ] } },
{ "type": "Feature", "properties": { "ID": "DRLG_6" }, "geometry": { "type": "LineString", "coordinates": [ [ 110.813393141615549, -7.536194928151464 ], [ 110.813200624532797, -7.536169916093531 ], [ 110.812906761112089, -7.536127085811637 ], [ 110.812691419900986, -7.536092583638963 ], [ 110.812608138769704, -7.536081876068989 ], [ 110.812454663542127, -7.536065219850509 ], [ 110.812253599096337, -7.536034286868482 ], [ 110.811976391902206, -7.535997405238279 ], [ 110.811802691257014, -7.535973610637821 ], [ 110.811548088941393, -7.535942677658808 ], [ 110.811262553634293, -7.535908175490013 ], [ 110.810984156709679, -7.535870104129352 ], [ 110.810841389056918, -7.535864155484738 ], [ 110.810641023419706, -7.535881673808107 ] ] } },
{ "type": "Feature", "properties": { "ID": "DRLG_10" }, "geometry": { "type": "LineString", "coordinates": [ [ 110.801864688618352, -7.547920121599533 ], [ 110.801645688380972, -7.548314121772615 ], [ 110.801526688272546, -7.548527121697234 ], [ 110.801431778108778, -7.548694411747463 ], [ 110.801205252775432, -7.548952789950583 ], [ 110.801020965008945, -7.549153746998292 ], [ 110.800846277624331, -7.549339390934411 ], [ 110.800756688647198, -7.549467121844258 ], [ 110.800652688334736, -7.549617121562378 ], [ 110.800633688355603, -7.549643121861214 ], [ 110.800600688628236, -7.549691121375315 ], [ 110.800525688757588, -7.549797121763558 ], [ 110.800443688561813, -7.54994812152865 ], [ 110.800335688061793, -7.550167121730407 ], [ 110.800227950713023, -7.550434302952724 ], [ 110.800089699117706, -7.550661128729554 ], [ 110.799993688429154, -7.550809121643195 ], [ 110.799935688445643, -7.550881121363714 ], [ 110.799812688154105, -7.551055122187712 ], [ 110.799798688406085, -7.551075121310744 ], [ 110.799751688031066, -7.551151122115391 ], [ 110.7997356881895, -7.551199121630185 ], [ 110.799656656122281, -7.551470837943432 ] ] } },
{ "type": "Feature", "properties": { "ID": "DRLG_13" }, "geometry": { "type": "LineString", "coordinates": [ [ 110.778088818521084, -7.552787445813101 ], [ 110.77769258563589, -7.554012857098056 ] ] } }
]
}
