{
"type": "FeatureCollection",
"name": "jaling_full",
"crs": { "type": "name", "properties": { "name": "urn:ogc:def:crs:OGC:1.3:CRS84" } },
"features": [
{ "type": "Feature", "properties": { "ID": "JLLG_57" }, "geometry": { "type": "LineString", "coordinates": [ [ 110.820988722358479, -7.533128592313552 ], [ 110.821262614935719, -7.533143799270736 ], [ 110.821694725054428, -7.533176159940457 ], [ 110.822231531457462, -7.533214231316469 ], [ 110.822566559566937, -7.533238977710925 ], [ 110.822709018363611, -7.533256010827951 ] ] } },
{ "type": "Feature", "properties": { "ID": "JLLG_59" }, "geometry": { "type": "LineString", "coordinates": [ [ 110.826440776164731, -7.532015736465681 ], [ 110.826379761691243, -7.531997443505035 ], [ 110.826064762453512, -7.531913443228524 ], [ 110.826011761807848, -7.531901443574564 ], [ 110.825812761624235, -7.531853443159626 ], [ 110.825596762455319, -7.531805443644038 ], [ 110.825261753236333, -7.531730201144982 ], [ 110.825021427674784, -7.531677853002813 ], [ 110.824853762365734, -7.531646443506364 ], [ 110.824785761927927, -7.531630443667856 ], [ 110.824600263076633, -7.531598141059088 ], [ 110.824407526735257, -7.53155650049144 ], [ 110.823981603215174, -7.531474409086762 ], [ 110.82387452746994, -7.531449424746218 ], [ 110.823805523100788, -7.531438717171639 ], [ 110.82355567969509, -7.531392317682064 ], [ 110.823490244517444, -7.531386369029582 ], [ 110.823147602132593, -7.531395886873572 ], [ 110.823053613422786, -7.531386369029582 ], [ 110.822859687350757, -7.531363764150012 ], [ 110.822759749988592, -7.53134115927043 ], [ 110.822720488882027, -7.531328072234903 ], [ 110.822519424426986, -7.531253119213219 ], [ 110.822373087575187, -7.531200771071057 ], [ 110.822149418240571, -7.531131766701904 ], [ 110.822101829020397, -7.531121059127444 ], [ 110.821938835941609, -7.531087746673292 ], [ 110.821647351968267, -7.531024690956666 ], [ 110.821407026406717, -7.530977101736548 ] ] } },
{ "type": "Feature", "properties": { "ID": "JLLG_55" }, "geometry": { "type": "LineString", "coordinates": [ [ 110.827006353225386, -7.530697855132867 ], [ 110.826953529191201, -7.53067072927734 ], [ 110.826377482502096, -7.530288247775324 ], [ 110.826292514923693, -7.530235287913345 ], [ 110.826108344641852, -7.530108224695589 ], [ 110.82599413051355, -7.530042551571847 ], [ 110.825941306479308, -7.530008287333318 ], [ 110.825708595192793, -7.529852670583516 ], [ 110.825587977340206, -7.529778567227875 ], [ 110.825216522656831, -7.52953822481151 ], [ 110.825097549606426, -7.5294586318409 ], [ 110.824960492652565, -7.529372971244759 ], [ 110.824790599136747, -7.529250191056795 ], [ 110.824643548446545, -7.52915596440102 ], [ 110.82459072441219, -7.52912455551564 ], [ 110.824543611084323, -7.529088863600572 ], [ 110.824519340582128, -7.529077442187706 ], [ 110.824500780786082, -7.529070303804747 ], [ 110.824483648666899, -7.529090291277148 ], [ 110.824473654930785, -7.529115989456109 ], [ 110.824459378164704, -7.529147398341308 ], [ 110.824435107662453, -7.529178807226572 ], [ 110.824419403219736, -7.529185945609638 ], [ 110.82439941574728, -7.529188800962793 ], [ 110.824309472121399, -7.529171668843615 ], [ 110.824266641823158, -7.529160247430814 ], [ 110.824037662324827, -7.529110250989275 ], [ 110.823797622608936, -7.529059502517609 ], [ 110.823582784730036, -7.529011769063967 ], [ 110.823381482329012, -7.528973221795749 ], [ 110.823348348334434, -7.528965548033966 ], [ 110.823213016489831, -7.528928963821042 ], [ 110.823095947008255, -7.528907548671953 ], [ 110.823053116710184, -7.528898982612354 ], [ 110.823017424795012, -7.528887561199437 ] ] } },
{ "type": "Feature", "properties": { "ID": "JLLG_58" }, "geometry": { "type": "LineString", "coordinates": [ [ 110.822250413006955, -7.529621418305577 ], [ 110.822223339170833, -7.52971309536663 ], [ 110.822160521400306, -7.5299686494787 ], [ 110.822094134438217, -7.530248474093033 ], [ 110.821999907782427, -7.530693195355084 ], [ 110.821989200207852, -7.53075387161074 ], [ 110.821997052429097, -7.530761723832106 ], [ 110.822019895356675, -7.530776699126967 ] ] } },
{ "type": "Feature", "properties": { "ID": "JLLG_54" }, "geometry": { "type": "LineString", "coordinates": [ [ 110.81094796054208, -7.541062169697801 ], [ 110.810574138150344, -7.54095323069084 ], [ 110.810488138681137, -7.540924231152076 ], [ 110.810166138221064, -7.540825231083375 ], [ 110.809739048704557, -7.540698300710238 ], [ 110.809349174018791, -7.540586918140506 ], [ 110.809307057558954, -7.540576353333678 ], [ 110.808910877301457, -7.540454144216382 ], [ 110.808479718967192, -7.540322084130662 ], [ 110.808085680224565, -7.540202159295919 ], [ 110.807721540980637, -7.540090777540419 ] ] } },
{ "type": "Feature", "properties": { "ID": "JLLG_85" }, "geometry": { "type": "LineString", "coordinates": [ [ 110.82108418505014, -7.555090604593993 ], [ 110.820693555563693, -7.555172157896762 ], [ 110.820338421008486, -7.555238187939659 ], [ 110.820002917006704, -7.55529731754563 ], [ 110.819541301571562, -7.55538595246808 ], [ 110.819433630961029, -7.555404393290797 ], [ 110.819218884605206, -7.555431757092419 ], [ 110.81905291720004, -7.555453767106764 ], [ 110.818962497681966, -7.555459120894052 ], [ 110.818893493312643, -7.555462690085553 ] ] } },
{ "type": "Feature", "properties": { "ID": "JLLG_84" }, "geometry": { "type": "LineString", "coordinates": [ [ 110.830983679785675, -7.55576643464193 ], [ 110.830971117880466, -7.555817417944871 ], [ 110.830975962049337, -7.555908811264033 ], [ 110.83098488502813, -7.55601874236242 ], [ 110.830989168057869, -7.556064071094622 ], [ 110.83099702027917, -7.556178999061212 ], [ 110.83099309416852, -7.556286788644791 ], [ 110.830990421240671, -7.556342912198311 ], [ 110.830985241947218, -7.556402073530481 ], [ 110.830945267002306, -7.556650132340337 ], [ 110.830938485538383, -7.556690821123529 ], [ 110.830931243780952, -7.556784236372738 ] ] } },
{ "type": "Feature", "properties": { "ID": "JLLG_63" }, "geometry": { "type": "LineString", "coordinates": [ [ 110.826341639845708, -7.544901160657266 ], [ 110.826351123145145, -7.54487929249881 ], [ 110.82651412256817, -7.544448292408274 ], [ 110.826576356150184, -7.54429241174301 ], [ 110.826583356473208, -7.544275411858381 ], [ 110.826631421585461, -7.544158818269121 ], [ 110.826654264411189, -7.544094572821849 ], [ 110.826670444745986, -7.544056501445821 ], [ 110.826838434693087, -7.543601548501437 ], [ 110.826878409637828, -7.543476864744705 ], [ 110.827000713933586, -7.543103289366784 ], [ 110.827057345105544, -7.542927209252407 ], [ 110.827098271834728, -7.542796814789255 ], [ 110.827119211091627, -7.542729713988875 ], [ 110.827158234252153, -7.542589801681793 ], [ 110.827201064550223, -7.542460359003074 ], [ 110.827271496596012, -7.54221812987265 ], [ 110.827287201038558, -7.542168637083751 ], [ 110.827409029442293, -7.541755086760862 ], [ 110.827434251728761, -7.541691793098026 ], [ 110.827489455224253, -7.541500960325432 ], [ 110.827593675616384, -7.541124529594296 ] ] } },
{ "type": "Feature", "properties": { "ID": "JLLG_50" }, "geometry": { "type": "LineString", "coordinates": [ [ 110.813544201776935, -7.541314621805652 ], [ 110.814453225383659, -7.541335169653997 ], [ 110.814562442643819, -7.541332076354744 ], [ 110.815067840161589, -7.541330172785907 ], [ 110.815509103857551, -7.541329210874017 ], [ 110.8165390075701, -7.54132825753508 ] ] } },
{ "type": "Feature", "properties": { "ID": "JLLG_52" }, "geometry": { "type": "LineString", "coordinates": [ [ 110.816566475958837, -7.540330295871999 ], [ 110.81655447540561, -7.54033029587201 ], [ 110.815544228083695, -7.540328042954275 ], [ 110.815530228337479, -7.540328042954275 ], [ 110.815518227784196, -7.540328042954273 ], [ 110.814540095539144, -7.540330422415351 ], [ 110.814527095838969, -7.540330422415339 ], [ 110.814515096184891, -7.540330422415347 ], [ 110.813913107563963, -7.540338750528842 ], [ 110.813420264087611, -7.540338030584068 ] ] } },
{ "type": "Feature", "properties": { "ID": "JLLG_51" }, "geometry": { "type": "LineString", "coordinates": [ [ 110.813194792585989, -7.539344528834947 ], [ 110.814544630908401, -7.539366063718346 ], [ 110.814883927654634, -7.539356509025508 ], [ 110.815113545641665, -7.539366026869548 ], [ 110.815349112281282, -7.539414805820083 ], [ 110.815582862979454, -7.539465978082069 ] ] } },
{ "type": "Feature", "properties": { "ID": "JLLG_49" }, "geometry": { "type": "LineString", "coordinates": [ [ 110.815888290523645, -7.538651006936815 ], [ 110.815804930300345, -7.538862536685595 ], [ 110.815697929862523, -7.539126536269634 ], [ 110.815585353101852, -7.539457958335928 ], [ 110.815576832881021, -7.539485398757257 ], [ 110.815560348932109, -7.539521960880706 ], [ 110.815563918123615, -7.539694471803584 ], [ 110.815562728392962, -7.540014509309025 ], [ 110.815556779740547, -7.540342874927917 ], [ 110.81555796947103, -7.540634358901142 ], [ 110.815554400279467, -7.540668861085712 ], [ 110.815547261896455, -7.540957965597988 ], [ 110.815550407742506, -7.541035179106784 ], [ 110.81554921801191, -7.541299299278513 ], [ 110.815536554322051, -7.541414822111138 ], [ 110.815542502974466, -7.541775310453574 ], [ 110.815544882435546, -7.541826468865141 ], [ 110.815557289837329, -7.542031190996621 ] ] } },
{ "type": "Feature", "properties": { "ID": "JLLG_28" }, "geometry": { "type": "LineString", "coordinates": [ [ 110.810132719061727, -7.536277942547061 ], [ 110.81021362073588, -7.536287460391097 ], [ 110.810387797281606, -7.536309351432323 ], [ 110.810521047097922, -7.536330290689112 ], [ 110.810687609368387, -7.536352181730448 ], [ 110.810740909294992, -7.536348374592846 ], [ 110.810838943088385, -7.536339808533146 ], [ 110.811019782124703, -7.536315062138705 ], [ 110.811154935509904, -7.53629888180385 ], [ 110.811245355028205, -7.536287460391093 ], [ 110.811384315550953, -7.536286508606659 ], [ 110.811661284811947, -7.536320772845134 ], [ 110.811871629165097, -7.536354085299214 ], [ 110.811925880875975, -7.536358844221211 ], [ 110.812276137536088, -7.536382638831325 ], [ 110.812602599586199, -7.536406433441321 ] ] } },
{ "type": "Feature", "properties": { "ID": "JLLG_12" }, "geometry": { "type": "LineString", "coordinates": [ [ 110.811614709836888, -7.532636470943936 ], [ 110.8116546847818, -7.532496558636737 ], [ 110.811688949020223, -7.532389006999245 ], [ 110.811713695414838, -7.532296683912232 ], [ 110.811724165043202, -7.532230059004038 ], [ 110.811743200731215, -7.531861718440312 ], [ 110.811747959653204, -7.531783672119367 ], [ 110.811765091772557, -7.531540967096682 ], [ 110.811775561400921, -7.531422945830774 ], [ 110.811784044245215, -7.531282003904031 ], [ 110.811794813966017, -7.531186861130026 ], [ 110.81182855350211, -7.530777253318026 ], [ 110.811831553640573, -7.530764253617836 ], [ 110.811834825803558, -7.530733325680202 ] ] } },
{ "type": "Feature", "properties": { "ID": "JLLG_113" }, "geometry": { "type": "LineString", "coordinates": [ [ 110.805334556198474, -7.557806026238479 ], [ 110.804891759356821, -7.557526912735583 ], [ 110.804147759221308, -7.557048913175558 ], [ 110.802741759134477, -7.556188913086611 ] ] } },
{ "type": "Feature", "properties": { "ID": "JLLG_114" }, "geometry": { "type": "LineString", "coordinates": [ [ 110.803279496594556, -7.558435556662419 ], [ 110.803321517875958, -7.557644719002531 ], [ 110.803326993715871, -7.557538119362963 ], [ 110.803323993577521, -7.557365119478965 ], [ 110.803323993577521, -7.557356119963234 ], [ 110.803322993531367, -7.556964119872464 ] ] } },
{ "type": "Feature", "properties": { "ID": "JLLG_111" }, "geometry": { "type": "LineString", "coordinates": [ [ 110.814126979230494, -7.551280159890943 ], [ 110.814354217756545, -7.551328938841559 ], [ 110.814470173493305, -7.551345961983592 ], [ 110.814869609010401, -7.551392827369565 ], [ 110.815194481423532, -7.551439236855054 ], [ 110.81526967239148, -7.551450658267871 ], [ 110.815518088120541, -7.551483970722012 ], [ 110.815754130652351, -7.551515379607274 ], [ 110.81584813558419, -7.551528401627531 ], [ 110.816187192555503, -7.551575342024592 ], [ 110.816247554878871, -7.551568015186119 ] ] } },
{ "type": "Feature", "properties": { "ID": "JLLG_45" }, "geometry": { "type": "LineString", "coordinates": [ [ 110.811146714225984, -7.560293578163213 ], [ 110.810940713719461, -7.560241578463176 ], [ 110.810607713651578, -7.560157578186803 ], [ 110.810405714228821, -7.560109578671224 ], [ 110.810229714206415, -7.560059578164083 ], [ 110.809990713976745, -7.559991578625533 ], [ 110.809532713540378, -7.559876578718256 ], [ 110.809290714071679, -7.559807578234238 ], [ 110.809101713449834, -7.559754578488111 ], [ 110.808772713566398, -7.559672578303926 ], [ 110.808629714166457, -7.559639578580776 ], [ 110.808611714235738, -7.55963557839633 ], [ 110.808574713428769, -7.559622578696149 ], [ 110.808558713590244, -7.55961057814276 ], [ 110.808545456172538, -7.559586622404181 ], [ 110.808526896376691, -7.559539152157111 ], [ 110.80847264466577, -7.559260636246373 ] ] } },
{ "type": "Feature", "properties": { "ID": "JLLG_46" }, "geometry": { "type": "LineString", "coordinates": [ [ 110.808643850843239, -7.559642840877124 ], [ 110.808489353723971, -7.560417199827777 ], [ 110.808453353862475, -7.560684199550047 ], [ 110.808395353885757, -7.560932199295445 ], [ 110.80839435383966, -7.56093619947988 ], [ 110.808347353470865, -7.561196199778689 ], [ 110.808280353978418, -7.561648199938356 ], [ 110.808182353955758, -7.562117199982706 ], [ 110.808167354163331, -7.562205199544214 ], [ 110.808102113770744, -7.562583953347926 ] ] } },
{ "type": "Feature", "properties": { "ID": "JLLG_93" }, "geometry": { "type": "LineString", "coordinates": [ [ 110.815122996859856, -7.558207540420425 ], [ 110.81511209295455, -7.55830643546647 ], [ 110.815092190187571, -7.558402392622601 ], [ 110.815029036509401, -7.558558736484425 ], [ 110.814913511488342, -7.558753588686597 ] ] } },
{ "type": "Feature", "properties": { "ID": "JLLG_92" }, "geometry": { "type": "LineString", "coordinates": [ [ 110.814406219924734, -7.553016934267935 ], [ 110.814375286931721, -7.553153455843248 ], [ 110.814356548676329, -7.553258152127403 ], [ 110.81424887806574, -7.553235547247941 ], [ 110.814154591923483, -7.553212942368366 ], [ 110.81411503338407, -7.55320937317686 ], [ 110.814042459823582, -7.553203127091654 ], [ 110.813983865596157, -7.553200152765446 ], [ 110.813944307056971, -7.553196286141206 ], [ 110.813834851850828, -7.553204316822193 ], [ 110.813681079183169, -7.553164163417766 ], [ 110.813585008445131, -7.553131148396294 ], [ 110.813578008122334, -7.553129148304042 ], [ 110.813572634362941, -7.55312537123837 ], [ 110.813548698465212, -7.553113675429079 ], [ 110.81353498027741, -7.553109316841533 ], [ 110.81352260708033, -7.553101226674134 ], [ 110.813507973394991, -7.553093969318017 ], [ 110.813495957117055, -7.55308980526127 ], [ 110.813454554495451, -7.553078383848463 ], [ 110.813323208247965, -7.553045071394426 ], [ 110.813268199495582, -7.553031328948696 ], [ 110.813267099192075, -7.553034996296792 ], [ 110.813205662874367, -7.553015566077936 ], [ 110.813112388002793, -7.552985108977002 ], [ 110.813017685454753, -7.552953700091739 ], [ 110.812987704246126, -7.552949892954193 ], [ 110.812961054282852, -7.552938471541329 ], [ 110.812928697752767, -7.552910675060905 ], [ 110.812900698260108, -7.552891675084031 ], [ 110.81287569800665, -7.552851675037975 ], [ 110.812854697937581, -7.552817675268789 ], [ 110.812854697937581, -7.552816675222691 ], [ 110.812836698006805, -7.552788674830713 ] ] } },
{ "type": "Feature", "properties": { "ID": "JLLG_44" }, "geometry": { "type": "LineString", "coordinates": [ [ 110.815858456674519, -7.558427616037101 ], [ 110.81601319506224, -7.558492394476623 ], [ 110.816239243857879, -7.558569013120923 ], [ 110.81640533023598, -7.558610415742415 ], [ 110.816712280705829, -7.558707021859341 ], [ 110.817059682012669, -7.558814573496768 ], [ 110.817155009123113, -7.558843543008102 ], [ 110.817221009468724, -7.558864542177908 ], [ 110.817464190383603, -7.558938305469106 ], [ 110.817563651853632, -7.558966859001153 ], [ 110.817713082004687, -7.559011592867996 ], [ 110.818060959203777, -7.559116765044458 ], [ 110.818203826008371, -7.559157334854667 ], [ 110.818733850947311, -7.559316163876765 ], [ 110.819064358081178, -7.559410747451814 ], [ 110.819140738779552, -7.559434304115776 ], [ 110.819479098134494, -7.559560653495176 ], [ 110.819803894561929, -7.55968343368307 ], [ 110.819857789353662, -7.559696996610747 ] ] } },
{ "type": "Feature", "properties": { "ID": "JLLG_91" }, "geometry": { "type": "LineString", "coordinates": [ [ 110.803643434272672, -7.549434950314003 ], [ 110.803711248911341, -7.54947849445041 ], [ 110.803859013439805, -7.549582001004166 ], [ 110.803991073525637, -7.549651243319436 ], [ 110.804212738823338, -7.549766742402594 ], [ 110.804438650140838, -7.549866108648264 ], [ 110.804672075265515, -7.549978895099942 ] ] } },
{ "type": "Feature", "properties": { "ID": "JLLG_90" }, "geometry": { "type": "LineString", "coordinates": [ [ 110.806711585445939, -7.547834780809031 ], [ 110.807230307945204, -7.548057260413077 ], [ 110.807714528259908, -7.548258086921967 ], [ 110.808104759864847, -7.548402282258921 ] ] } },
{ "type": "Feature", "properties": { "ID": "JLLG_19" }, "geometry": { "type": "LineString", "coordinates": [ [ 110.840631204887018, -7.56710487417264 ], [ 110.840581236205935, -7.567084648754093 ], [ 110.840299270076741, -7.566959727051311 ], [ 110.840016114217065, -7.566841943731517 ], [ 110.839631831264569, -7.566670622539079 ], [ 110.839575505316589, -7.566640990573552 ], [ 110.839556000672815, -7.566632592971312 ], [ 110.839502010612932, -7.56660934788297 ], [ 110.839332297683029, -7.566536278399156 ], [ 110.839209472127209, -7.56648339625588 ], [ 110.838928462591241, -7.566356533686264 ] ] } },
{ "type": "Feature", "properties": { "ID": "JLLG_17" }, "geometry": { "type": "LineString", "coordinates": [ [ 110.844977155209975, -7.562720996519494 ], [ 110.845217956663774, -7.562789524996461 ], [ 110.845581538305481, -7.562876137377069 ], [ 110.846006034148928, -7.562959894404479 ], [ 110.846231247901343, -7.56300702692973 ], [ 110.84635103066357, -7.56300489635706 ], [ 110.846411271051849, -7.563003823944574 ], [ 110.846429122069978, -7.563003506393071 ], [ 110.84665978789171, -7.562982789643271 ], [ 110.846736542327719, -7.562975895744825 ], [ 110.846915708838011, -7.562959804038972 ], [ 110.846980390035625, -7.562953994849948 ], [ 110.847026359472054, -7.562949866228933 ], [ 110.84733713939282, -7.562926832795905 ], [ 110.847391505730158, -7.562922803626037 ], [ 110.847508464281631, -7.562914134413202 ], [ 110.847958190820847, -7.562874801442003 ], [ 110.848242414565149, -7.562856950104996 ], [ 110.848284690089926, -7.562860273730257 ], [ 110.848425892541215, -7.562871373958129 ], [ 110.848853986145329, -7.562964863359311 ], [ 110.848927418630851, -7.562990638312533 ] ] } },
{ "type": "Feature", "properties": { "ID": "JLLG_18" }, "geometry": { "type": "LineString", "coordinates": [ [ 110.844002579304828, -7.562697620993839 ], [ 110.844016526718249, -7.562650018326231 ], [ 110.844036514190705, -7.562590769747209 ], [ 110.844066495399503, -7.562497970767944 ], [ 110.844090006011996, -7.56241716978229 ], [ 110.844134310038058, -7.562300237558311 ], [ 110.844142162259473, -7.562287388468869 ], [ 110.844179995689402, -7.5622317090814 ], [ 110.844208549221392, -7.562185309591713 ], [ 110.84425042773519, -7.562076806169911 ], [ 110.844260659417515, -7.562040400416557 ], [ 110.844279219213391, -7.561983293352398 ], [ 110.844317766481666, -7.561823393572744 ], [ 110.844331329409343, -7.561753437419227 ], [ 110.844342036983917, -7.561702041061432 ], [ 110.84434703385206, -7.561649930865498 ], [ 110.844349889205162, -7.561539285928699 ], [ 110.844351316881799, -7.561508590881669 ], [ 110.844362024456373, -7.561392949076838 ], [ 110.844369876677675, -7.56135868483835 ], [ 110.844399857886302, -7.561241615356888 ], [ 110.844419528097163, -7.561166511635927 ], [ 110.844442688184543, -7.561108127594424 ], [ 110.844479807776182, -7.561025322351389 ], [ 110.844514785853008, -7.560926098827503 ], [ 110.844531204133958, -7.560878271661291 ], [ 110.844543339384941, -7.56082401995035 ], [ 110.844566216700471, -7.560646724407537 ] ] } },
{ "type": "Feature", "properties": { "ID": "JLLG_27" }, "geometry": { "type": "LineString", "coordinates": [ [ 110.848483218831319, -7.533181895235406 ], [ 110.848490833106538, -7.533223773749111 ], [ 110.84849701970515, -7.533284687950858 ], [ 110.848494521271107, -7.533458626550368 ], [ 110.848485955211487, -7.533506810635747 ], [ 110.848422066683497, -7.533704900764461 ], [ 110.84835782123632, -7.533932972101865 ], [ 110.8482880294235, -7.534143314814764 ] ] } },
{ "type": "Feature", "properties": { "ID": "JLLG_24" }, "geometry": { "type": "LineString", "coordinates": [ [ 110.847132389574341, -7.538122936155331 ], [ 110.848005555481961, -7.538749363026605 ], [ 110.848008008987279, -7.538751089847127 ], [ 110.84803232441817, -7.538773157636606 ], [ 110.848270270518867, -7.538950427481536 ], [ 110.848388053838676, -7.539029544560015 ], [ 110.848580195314923, -7.539163984106817 ], [ 110.848763413812378, -7.539285931483382 ], [ 110.848920004245144, -7.539402103536196 ] ] } },
{ "type": "Feature", "properties": { "ID": "JLLG_23" }, "geometry": { "type": "LineString", "coordinates": [ [ 110.846938492101003, -7.53861103142237 ], [ 110.847030651258436, -7.538626400555835 ], [ 110.847278868090754, -7.538766505060132 ], [ 110.847490521147265, -7.538894044170085 ], [ 110.84773929379547, -7.539034908261658 ], [ 110.847989018227892, -7.539205396642786 ], [ 110.848388172811767, -7.539434419764578 ], [ 110.848742716136968, -7.53964609202 ] ] } },
{ "type": "Feature", "properties": { "ID": "JLLG_25" }, "geometry": { "type": "LineString", "coordinates": [ [ 110.847627474739014, -7.539330465299155 ], [ 110.847907482639101, -7.538913038360131 ], [ 110.848012178923355, -7.538783357735326 ], [ 110.848073782308418, -7.538702128962839 ], [ 110.848241534309309, -7.538508797756165 ], [ 110.848311991010107, -7.538441905080981 ], [ 110.848382779975026, -7.538375875038068 ], [ 110.848593362274045, -7.538159344086536 ] ] } },
{ "type": "Feature", "properties": { "ID": "JLLG_26" }, "geometry": { "type": "LineString", "coordinates": [ [ 110.849241603473246, -7.538970521233721 ], [ 110.849003878784032, -7.539286673224555 ], [ 110.848635895139466, -7.539793101841959 ], [ 110.848634110543728, -7.539829388622294 ], [ 110.84864481811826, -7.539857347289127 ], [ 110.848768975802429, -7.539924307162169 ], [ 110.848800263620817, -7.539939326025851 ], [ 110.848868318299523, -7.539969516921319 ], [ 110.848892112909525, -7.539982009091569 ], [ 110.848896871831514, -7.539991526935591 ], [ 110.848897466696812, -7.540002829375355 ], [ 110.848893897505306, -7.540014726680373 ], [ 110.848823108540373, -7.54013429459595 ], [ 110.84877715519967, -7.540212816809134 ] ] } },
{ "type": "Feature", "properties": { "ID": "JLLG_94" }, "geometry": { "type": "LineString", "coordinates": [ [ 110.855100117751036, -7.54764172606684 ], [ 110.855326204980287, -7.547056545405495 ], [ 110.855547494853809, -7.546394817299765 ], [ 110.855883712693938, -7.545639576376513 ], [ 110.856204226091435, -7.544969996049454 ], [ 110.856424088288378, -7.544547403774827 ], [ 110.856461921718363, -7.544458173987108 ], [ 110.856623963012836, -7.544081267363771 ], [ 110.85665751341304, -7.544006314342083 ], [ 110.856781007439253, -7.543772889217405 ] ] } },
{ "type": "Feature", "properties": { "ID": "JLLG_95" }, "geometry": { "type": "LineString", "coordinates": [ [ 110.855421294190663, -7.544107719038603 ], [ 110.855679941601991, -7.544192665796527 ], [ 110.856082213279677, -7.544317658883164 ], [ 110.856461921718363, -7.544458173987108 ], [ 110.856871004603164, -7.544607810358239 ], [ 110.85741699893245, -7.544783636479541 ] ] } },
{ "type": "Feature", "properties": { "ID": "JLLG_109" }, "geometry": { "type": "LineString", "coordinates": [ [ 110.847130269759461, -7.537121776006547 ], [ 110.846858416339487, -7.537112258162483 ], [ 110.846261766492304, -7.537042064062803 ], [ 110.84587688867451, -7.537001018360508 ], [ 110.845729956957413, -7.536990905651193 ], [ 110.845663577250704, -7.536989042267517 ], [ 110.845541384672671, -7.536973059693651 ], [ 110.845411704047862, -7.536959377792818 ], [ 110.845145204415175, -7.536939747239624 ], [ 110.844885248300429, -7.536916547494743 ], [ 110.844682994114734, -7.536895132345722 ], [ 110.844662768696239, -7.53689096828896 ], [ 110.8445759183695, -7.536866578813656 ], [ 110.844343001090792, -7.536800614797869 ], [ 110.84423089652374, -7.536769020912402 ], [ 110.844076059485971, -7.536727329063088 ] ] } },
{ "type": "Feature", "properties": { "ID": "JLLG_96" }, "geometry": { "type": "LineString", "coordinates": [ [ 110.840635741129688, -7.536843221033353 ], [ 110.840586367313733, -7.536960409487862 ], [ 110.840525416273465, -7.537107801739759 ], [ 110.840512009157294, -7.537140653659008 ], [ 110.840430175320705, -7.53734931200855 ], [ 110.840412666660427, -7.537389902199388 ], [ 110.840277037383032, -7.537590371789198 ], [ 110.840225349541981, -7.537665085675333 ], [ 110.840188997325811, -7.537717078087746 ], [ 110.840163418120028, -7.537756339194376 ], [ 110.840089059963589, -7.537872337918334 ], [ 110.840007563424138, -7.537990121238138 ], [ 110.839940938515895, -7.538093032926641 ], [ 110.83980687968301, -7.538302231172396 ], [ 110.839733354337909, -7.538416802219854 ], [ 110.839639002078229, -7.538547365747966 ], [ 110.839535240414421, -7.538707528731449 ], [ 110.839393067619312, -7.538906213725412 ], [ 110.83937106193298, -7.538923457391918 ], [ 110.839293451488118, -7.539066595990576 ], [ 110.839229837934795, -7.539197605269361 ], [ 110.839181652509012, -7.539313250273797 ], [ 110.839111763773644, -7.539485188142998 ], [ 110.839051377018848, -7.539629123722269 ], [ 110.839013492033928, -7.53972444294722 ], [ 110.838957864201461, -7.539856124302176 ], [ 110.838922936584424, -7.539945229735966 ], [ 110.838901114056455, -7.539989968983679 ], [ 110.838845791588085, -7.540122385988777 ], [ 110.838820212382302, -7.540168597104308 ], [ 110.838760844830176, -7.540298704049254 ], [ 110.83872586675335, -7.540383293888067 ], [ 110.83871551609792, -7.540488228118434 ], [ 110.838694100948828, -7.540677395268371 ], [ 110.838691245595726, -7.540710231830251 ], [ 110.838668045850795, -7.540876199235435 ], [ 110.83863984923795, -7.541032172904258 ], [ 110.838622360199452, -7.54112033193457 ], [ 110.838547407177884, -7.541401941144624 ], [ 110.838443900624156, -7.541754577265651 ], [ 110.83843426380713, -7.54178455847427 ], [ 110.838420343960195, -7.54183345639805 ], [ 110.838352886240784, -7.542051533999167 ], [ 110.838257945746534, -7.542357056792257 ], [ 110.838242598223133, -7.542409880826664 ], [ 110.838229035295285, -7.542452711124736 ], [ 110.838201195601528, -7.54247662470785 ], [ 110.838167645201395, -7.542503036725029 ], [ 110.838100993769785, -7.542576892005591 ], [ 110.83793901371871, -7.542822149936476 ], [ 110.837746872113883, -7.543088089032634 ], [ 110.837660978372014, -7.543209475366055 ], [ 110.837590088543266, -7.543309894435416 ] ] } },
{ "type": "Feature", "properties": { "ID": "JLLG_97" }, "geometry": { "type": "LineString", "coordinates": [ [ 110.839411303940054, -7.537829388294161 ], [ 110.839139139531497, -7.537713169485938 ], [ 110.838981120433985, -7.537648976629677 ], [ 110.838819780013637, -7.53758703723 ] ] } },
{ "type": "Feature", "properties": { "ID": "JLLG_98" }, "geometry": { "type": "LineString", "coordinates": [ [ 110.838909200350656, -7.537352534119549 ], [ 110.838807819356532, -7.537618403822735 ], [ 110.838857074199382, -7.537736187142535 ], [ 110.838876277619761, -7.537793349117254 ], [ 110.83899948494053, -7.53808489715292 ], [ 110.839001983374544, -7.538090607859351 ], [ 110.839270386576061, -7.538198040523786 ] ] } },
{ "type": "Feature", "properties": { "ID": "JLLG_99" }, "geometry": { "type": "LineString", "coordinates": [ [ 110.839169658289933, -7.538418332414514 ], [ 110.839033273286617, -7.538361366727199 ], [ 110.838856717279981, -7.538290934681414 ], [ 110.838818170011706, -7.53827189899341 ], [ 110.838807224491092, -7.538248104383348 ], [ 110.838794375401648, -7.538216219605762 ], [ 110.838752020995827, -7.538117709920124 ], [ 110.838732509415564, -7.538066313562468 ], [ 110.838663505046412, -7.537900227184258 ], [ 110.838652083633605, -7.53787500489755 ], [ 110.838614488149716, -7.537785061271507 ], [ 110.838562258980659, -7.537662400056711 ], [ 110.838548339133666, -7.537630396306228 ], [ 110.838572035581507, -7.537566399261332 ], [ 110.838695549097196, -7.537268315375615 ] ] } },
{ "type": "Feature", "properties": { "ID": "JLLG_101" }, "geometry": { "type": "LineString", "coordinates": [ [ 110.838695549097196, -7.537268315375615 ], [ 110.838923960848234, -7.537358352529433 ], [ 110.839242217730174, -7.537486629298837 ] ] } },
{ "type": "Feature", "properties": { "ID": "JLLG_100" }, "geometry": { "type": "LineString", "coordinates": [ [ 110.839359182072457, -7.537228436597484 ], [ 110.839242217730174, -7.537486629298837 ], [ 110.839145132165115, -7.537715728441902 ], [ 110.839001983374544, -7.538090607859351 ] ] } },
{ "type": "Feature", "properties": { "ID": "JLLG_102" }, "geometry": { "type": "LineString", "coordinates": [ [ 110.83883437103367, -7.540143018238417 ], [ 110.838731458486691, -7.54009959273508 ], [ 110.838678277533191, -7.54007889142439 ], [ 110.838612439073316, -7.54005190767661 ], [ 110.838576912494332, -7.54003713188375 ], [ 110.838550500477211, -7.540026424309185 ], [ 110.838504582352599, -7.540005815490633 ], [ 110.83848889756122, -7.539995861886827 ], [ 110.838454681565636, -7.539981509999778 ], [ 110.838434144834039, -7.539968246487547 ], [ 110.838420938825507, -7.539956111236505 ], [ 110.838404163625412, -7.53993897911714 ], [ 110.838383617539719, -7.539916028742355 ], [ 110.838368588469066, -7.539896516106676 ], [ 110.83834616252939, -7.5398677207391 ], [ 110.838321001463285, -7.539830118776252 ], [ 110.83830708161635, -7.53982083887829 ], [ 110.838284301361128, -7.539808863882439 ] ] } },
{ "type": "Feature", "properties": { "ID": "JLLG_22" }, "geometry": { "type": "LineString", "coordinates": [ [ 110.848299862719045, -7.547549926343858 ], [ 110.848096014790997, -7.54755936093251 ], [ 110.847954511931789, -7.547554525029307 ], [ 110.847754260443196, -7.547516161715895 ], [ 110.847624378718251, -7.547490132589262 ], [ 110.847393808946777, -7.547452299159287 ], [ 110.847273884112099, -7.547437308554967 ], [ 110.846976927378591, -7.547385912197327 ], [ 110.846814886084076, -7.547369493916351 ], [ 110.846770628109368, -7.547369493916361 ] ] } },
{ "type": "Feature", "properties": { "ID": "JLLG_103" }, "geometry": { "type": "LineString", "coordinates": [ [ 110.857995732171645, -7.548980102594474 ], [ 110.858001837099579, -7.548994005690439 ], [ 110.858140403400938, -7.549520716134981 ] ] } },
{ "type": "Feature", "properties": { "ID": "JLLG_104" }, "geometry": { "type": "LineString", "coordinates": [ [ 110.857873510075535, -7.548989929887788 ], [ 110.857865094328531, -7.548967998593703 ], [ 110.857691364593222, -7.548498246879713 ] ] } },
{ "type": "Feature", "properties": { "ID": "JLLG_87" }, "geometry": { "type": "LineString", "coordinates": [ [ 110.85560770885553, -7.56684135092223 ], [ 110.856076369406424, -7.567012168198125 ], [ 110.856454321891931, -7.567161638418944 ], [ 110.856643594852926, -7.56723305870498 ], [ 110.856713327059992, -7.567259372087901 ], [ 110.857076373736788, -7.567395779143633 ], [ 110.857631739935698, -7.567594940029891 ], [ 110.858052190695389, -7.567746273749824 ], [ 110.858080744227379, -7.567759122839282 ], [ 110.858097876346733, -7.567770544252087 ], [ 110.858107870082904, -7.567781965664963 ], [ 110.858113580789279, -7.567799097784127 ], [ 110.858097162508329, -7.568025384525742 ], [ 110.858089310287085, -7.568124608049743 ], [ 110.858085027257346, -7.568171721377666 ] ] } },
{ "type": "Feature", "properties": { "ID": "JLLG_86" }, "geometry": { "type": "LineString", "coordinates": [ [ 110.846948529987714, -7.57058112535143 ], [ 110.847108509791539, -7.570663185376006 ], [ 110.847206822618546, -7.570736216895267 ], [ 110.847312323025335, -7.570833184039058 ], [ 110.847417818007742, -7.570945708864785 ], [ 110.847453213626508, -7.570985642670395 ], [ 110.847510124277747, -7.571049851822122 ], [ 110.847585645094227, -7.571142021420559 ], [ 110.847659967873639, -7.57123060125131 ], [ 110.847733105634106, -7.571278493976861 ], [ 110.847795460006665, -7.571298859555341 ], [ 110.847948946189106, -7.571350369642043 ], [ 110.848165991661048, -7.571409082310608 ], [ 110.848348957711053, -7.571456415273064 ], [ 110.848402223825843, -7.571470195042156 ], [ 110.848544915407729, -7.571526488152505 ], [ 110.848771541858497, -7.571622301196683 ], [ 110.849030537286339, -7.571750434794202 ], [ 110.849133654671363, -7.571804321410114 ], [ 110.849299122039881, -7.571891735772882 ], [ 110.849403436671622, -7.571949212076129 ], [ 110.849453795907138, -7.571977949597211 ], [ 110.849562910474205, -7.572030640533924 ], [ 110.849648042240588, -7.57207494684383 ], [ 110.849693608326078, -7.572091716119021 ], [ 110.849747993053626, -7.57209397459227 ], [ 110.849928832090072, -7.572073154308465 ], [ 110.850307761255252, -7.572010693457069 ] ] } },
{ "type": "Feature", "properties": { "ID": "JLLG_67" }, "geometry": { "type": "LineString", "coordinates": [ [ 110.789066642302075, -7.547755213323727 ], [ 110.789641860562099, -7.547912894089412 ], [ 110.789988260344643, -7.548009721966202 ], [ 110.79033466028848, -7.548106549572368 ], [ 110.790788355477872, -7.548233367693899 ], [ 110.790802222635364, -7.548237244076224 ], [ 110.791158584534628, -7.548339944648186 ], [ 110.79149918794937, -7.548438102813286 ], [ 110.792239158343335, -7.54865135359132 ], [ 110.793003465874321, -7.548871616928546 ], [ 110.79300318898278, -7.548872494229175 ], [ 110.793216049366791, -7.548938243172684 ], [ 110.793431090140686, -7.548991998461453 ], [ 110.793431136365228, -7.548992010242642 ] ] } },
{ "type": "Feature", "properties": { "ID": "JLLG_68" }, "geometry": { "type": "LineString", "coordinates": [ [ 110.789210533217002, -7.547293461781743 ], [ 110.789464830226578, -7.547363032049861 ], [ 110.789751180488352, -7.547441865538993 ], [ 110.790119392512096, -7.547543234774532 ], [ 110.790126693051292, -7.547545244618602 ], [ 110.790455758365269, -7.547638952081923 ], [ 110.79090615376964, -7.547767211276946 ] ] } },
{ "type": "Feature", "properties": { "ID": "JLLG_3" }, "geometry": { "type": "LineString", "coordinates": [ [ 110.783249841816229, -7.556766818521476 ], [ 110.783316135853937, -7.556793468355526 ], [ 110.78344561205391, -7.556872513138134 ], [ 110.783503146712363, -7.556927588251143 ], [ 110.783514221420788, -7.5569365096054 ], [ 110.783577468094919, -7.556987458652276 ], [ 110.783630206833365, -7.55704013788488 ], [ 110.783726120447412, -7.557088052432042 ], [ 110.783740105022687, -7.557093209064938 ], [ 110.783880486434526, -7.557144969212343 ], [ 110.783973112753685, -7.557179121790867 ], [ 110.78416671339599, -7.557256376289987 ] ] } },
{ "type": "Feature", "properties": { "ID": "JLLG_71" }, "geometry": { "type": "LineString", "coordinates": [ [ 110.778115949536016, -7.552773822447821 ], [ 110.778007539912082, -7.553145763205783 ], [ 110.777898845055248, -7.55347299725233 ], [ 110.777715299294599, -7.554012895352096 ] ] } },
{ "type": "Feature", "properties": { "ID": "JLLG_70" }, "geometry": { "type": "LineString", "coordinates": [ [ 110.777797995299167, -7.5526492729577 ], [ 110.777623203042552, -7.55315179309816 ], [ 110.777562739844115, -7.553347095487196 ] ] } },
{ "type": "Feature", "properties": { "ID": "JLLG_64" }, "geometry": { "type": "LineString", "coordinates": [ [ 110.780355520452204, -7.556338860725221 ], [ 110.780367656203083, -7.556343070356512 ], [ 110.780406052850267, -7.556356389529629 ], [ 110.780544612516536, -7.556404454657746 ], [ 110.780572616291551, -7.556414169317363 ], [ 110.780576100223072, -7.55641537776171 ], [ 110.780637835781988, -7.556436793670291 ], [ 110.780650392653911, -7.556440436564285 ], [ 110.780730764860849, -7.556463753462679 ], [ 110.780842272289959, -7.556501863561529 ], [ 110.780932197557391, -7.5565327827827 ] ] } },
{ "type": "Feature", "properties": { "ID": "JLLG_2" }, "geometry": { "type": "LineString", "coordinates": [ [ 110.795896117310519, -7.556940512019675 ], [ 110.795912957136807, -7.556832221133061 ], [ 110.795956862360981, -7.556546835529804 ], [ 110.795999545852027, -7.556309316202331 ], [ 110.796015791071142, -7.556190254986831 ], [ 110.796054288198064, -7.555929398599802 ], [ 110.796080134924324, -7.555793588463311 ], [ 110.796111991429896, -7.555628462679632 ], [ 110.796138439405624, -7.555489062803236 ], [ 110.796152258363094, -7.555429235681255 ], [ 110.796162475482205, -7.555378381913286 ], [ 110.796169086277487, -7.555346074869424 ], [ 110.796172699610423, -7.555312569754817 ], [ 110.796389013985035, -7.554654363041275 ], [ 110.796527309054753, -7.554194884364568 ], [ 110.796777098595086, -7.553435832203691 ], [ 110.796861649964356, -7.553163030402066 ] ] } },
{ "type": "Feature", "properties": { "ID": "JLLG_1" }, "geometry": { "type": "LineString", "coordinates": [ [ 110.788124254687176, -7.557867029036406 ], [ 110.787968052064144, -7.55841529817519 ] ] } },
{ "type": "Feature", "properties": { "ID": "JLLG_119" }, "geometry": { "type": "LineString", "coordinates": [ [ 110.789373009992488, -7.568551618450567 ], [ 110.789121371340855, -7.569263415850059 ], [ 110.788954687627424, -7.569765617537781 ], [ 110.788791479925067, -7.570280473115969 ] ] } },
{ "type": "Feature", "properties": { "ID": "JLLG_118" }, "geometry": { "type": "LineString", "coordinates": [ [ 110.790301357661619, -7.569672453178525 ], [ 110.790374062538788, -7.569500202896457 ], [ 110.790401685686888, -7.56941644926073 ], [ 110.790520653545244, -7.569162812347754 ], [ 110.790634571498501, -7.568935978385423 ], [ 110.790630988999126, -7.568904384568282 ], [ 110.790564101907265, -7.568840450242805 ], [ 110.79034829630433, -7.568644693440246 ] ] } },
{ "type": "Feature", "properties": { "ID": "JLLG_118" }, "geometry": { "type": "LineString", "coordinates": [ [ 110.790520653545244, -7.569162812347754 ], [ 110.790595721583486, -7.569202661214495 ], [ 110.790649315448036, -7.569228535035816 ], [ 110.790703233773726, -7.569254404422429 ], [ 110.790841749765235, -7.56932160869732 ], [ 110.791048217089937, -7.569411098991886 ] ] } },
{ "type": "Feature", "properties": { "ID": "JLLG_11" }, "geometry": { "type": "LineString", "coordinates": [ [ 110.785111370645026, -7.567419516315565 ], [ 110.785617332817324, -7.567520511892654 ], [ 110.786269149738402, -7.567628768207014 ] ] } },
{ "type": "Feature", "properties": { "ID": "JLLG_120" }, "geometry": { "type": "LineString", "coordinates": [ [ 110.805446802159466, -7.573881464244486 ], [ 110.805471890148567, -7.573655946117186 ], [ 110.805501730851105, -7.573435053949406 ], [ 110.805524137616814, -7.573210807779137 ], [ 110.805531832403531, -7.573147281683573 ] ] } },
{ "type": "Feature", "properties": { "ID": "JLLG_115" }, "geometry": { "type": "LineString", "coordinates": [ [ 110.798338273918588, -7.56287855437667 ], [ 110.798474143569763, -7.562109755886706 ], [ 110.798530053055472, -7.561796253832488 ], [ 110.798546281737856, -7.561711895999761 ], [ 110.798556491033381, -7.56167767591432 ], [ 110.798715357775222, -7.561614998570549 ], [ 110.798915117535614, -7.561553088351669 ], [ 110.799343005633546, -7.56141447145601 ], [ 110.799409275850607, -7.561386380148843 ], [ 110.79943686633176, -7.561368442760878 ], [ 110.799460853195811, -7.561363367932286 ], [ 110.799513906928482, -7.561389419914413 ], [ 110.79961400614107, -7.56146784787087 ], [ 110.799681436265416, -7.561525019891095 ], [ 110.799813882813694, -7.561672570424795 ], [ 110.799822274092492, -7.561679754302889 ] ] } },
{ "type": "Feature", "properties": { "ID": "JLLG_4" }, "geometry": { "type": "LineString", "coordinates": [ [ 110.801619578113545, -7.561020339967878 ], [ 110.801535993549834, -7.561279740349418 ], [ 110.801440580161511, -7.561572097874875 ], [ 110.801424240759417, -7.561629715930276 ] ] } },
{ "type": "Feature", "properties": { "ID": "JLLG_5" }, "geometry": { "type": "LineString", "coordinates": [ [ 110.80392422073065, -7.568774676817867 ], [ 110.803972784059624, -7.568463752207926 ], [ 110.80399384299686, -7.568304006056719 ], [ 110.804046857924732, -7.567931450259702 ], [ 110.804122908147178, -7.56735971485844 ], [ 110.804164180557578, -7.567052946743461 ], [ 110.804208453075333, -7.566741592725454 ], [ 110.804244724971454, -7.566442696443898 ], [ 110.80426624841445, -7.566227488735851 ], [ 110.804382913350992, -7.565830661004961 ] ] } },
{ "type": "Feature", "properties": { "ID": "JLLG_116" }, "geometry": { "type": "LineString", "coordinates": [ [ 110.792488110374308, -7.562496141480681 ], [ 110.792457872778442, -7.562575312559073 ], [ 110.792384157016741, -7.562730129857961 ], [ 110.792263131101748, -7.563008434911942 ], [ 110.791896280171741, -7.563788329881749 ] ] } },
{ "type": "Feature", "properties": { "ID": "JLLG_117" }, "geometry": { "type": "LineString", "coordinates": [ [ 110.789826944940913, -7.567141764641454 ], [ 110.789866365188502, -7.566965873097211 ], [ 110.789912456675879, -7.566881889046838 ], [ 110.790022878922599, -7.566691432309073 ], [ 110.790137640889924, -7.56645430748136 ], [ 110.790182056341081, -7.566364099904827 ], [ 110.79029441977022, -7.566126734539476 ], [ 110.790456494145431, -7.565801018913747 ] ] } },
{ "type": "Feature", "properties": { "ID": "JLLG_6" }, "geometry": { "type": "LineString", "coordinates": [ [ 110.800951844174378, -7.570013305210806 ], [ 110.800970557355896, -7.570002663384398 ], [ 110.801008696462191, -7.56999621877496 ], [ 110.801157660062429, -7.569959668625258 ], [ 110.801169899975037, -7.569943160148773 ], [ 110.801175782354576, -7.569668167828023 ], [ 110.80117871449464, -7.569550416734405 ], [ 110.801180192404573, -7.569465693098024 ], [ 110.801181429703561, -7.569366638474269 ], [ 110.801176869883435, -7.569201705226305 ] ] } },
{ "type": "Feature", "properties": { "ID": "JLLG_7" }, "geometry": { "type": "LineString", "coordinates": [ [ 110.802747825055349, -7.568540435206526 ], [ 110.802735654037377, -7.568594505178353 ], [ 110.80266571755746, -7.568903214695425 ], [ 110.802588036840859, -7.569266708317647 ] ] } },
{ "type": "Feature", "properties": { "ID": "JLLG_7" }, "geometry": { "type": "LineString", "coordinates": [ [ 110.802003229849504, -7.56910982859659 ], [ 110.803248546423973, -7.569443894863761 ], [ 110.803284354240873, -7.569453732787393 ], [ 110.803313648772587, -7.569456765456777 ], [ 110.803349281122081, -7.569448727006331 ], [ 110.803371173340608, -7.569434714329144 ], [ 110.803387671166419, -7.569417630872671 ], [ 110.80339679672889, -7.569392744227516 ], [ 110.803402089249232, -7.569357803815088 ], [ 110.803412666915705, -7.569304197715098 ], [ 110.803423240893935, -7.569258728977319 ], [ 110.803573008496841, -7.56874902440179 ] ] } },
{ "type": "Feature", "properties": { "ID": "JLLG_8" }, "geometry": { "type": "LineString", "coordinates": [ [ 110.803865277824059, -7.570523920407199 ], [ 110.803764673815451, -7.570481043129038 ], [ 110.803687935481562, -7.570450613122669 ], [ 110.803641412006357, -7.570434078102526 ], [ 110.803584576599988, -7.570413948416864 ], [ 110.803420539430064, -7.57036887962487 ], [ 110.803095344701632, -7.57027587114808 ], [ 110.803033685272837, -7.570258737955339 ] ] } },
{ "type": "Feature", "properties": { "ID": "JLLG_8" }, "geometry": { "type": "LineString", "coordinates": [ [ 110.802984044445097, -7.57024076545186 ], [ 110.802675417170775, -7.570165587489068 ], [ 110.802641123072888, -7.570155759258401 ], [ 110.802581648095327, -7.570138500259262 ], [ 110.80238735671621, -7.570072518596721 ] ] } },
{ "type": "Feature", "properties": { "ID": "JLLG_115" }, "geometry": { "type": "LineString", "coordinates": [ [ 110.800411455863113, -7.563529623421122 ], [ 110.800420111446513, -7.56348367520232 ], [ 110.80042444737488, -7.563442990360817 ], [ 110.800416311954351, -7.563400863807892 ], [ 110.800400496395426, -7.56336974311702 ], [ 110.800386590590122, -7.563358248709398 ], [ 110.800365971289892, -7.563341964543732 ], [ 110.800352066366443, -7.563328555461256 ], [ 110.800331453889754, -7.563297432572651 ], [ 110.800310849337805, -7.563249077619459 ], [ 110.800247119140835, -7.563099225191308 ], [ 110.80021407695294, -7.562976192246835 ], [ 110.800201647228334, -7.562884282195186 ], [ 110.800181565996667, -7.562741151104655 ], [ 110.800157666400594, -7.562556374100239 ], [ 110.800123684052494, -7.562391696553378 ], [ 110.80009974441046, -7.562294037201592 ], [ 110.800086341026017, -7.562233240154588 ], [ 110.800060949109081, -7.562164300247989 ], [ 110.800030285444421, -7.562084827215685 ], [ 110.800016877448329, -7.562034082203838 ], [ 110.799987649567868, -7.561961789854858 ], [ 110.799964180853024, -7.561883277453133 ], [ 110.799936386552915, -7.561822952471818 ], [ 110.79991049272634, -7.561802357850283 ], [ 110.79989274989795, -7.561789904330984 ] ] } },
{ "type": "Feature", "properties": { "ID": "JLLG_69" }, "geometry": { "type": "LineString", "coordinates": [ [ 110.794048911607291, -7.548018154335105 ], [ 110.793322305600952, -7.54780241047073 ], [ 110.792106480621371, -7.547484476599172 ], [ 110.792067617359393, -7.54750456219741 ], [ 110.792033065678936, -7.547536137890662 ], [ 110.792008582363039, -7.547577770413175 ], [ 110.792004257054927, -7.547595000425965 ], [ 110.79109779071014, -7.547346139153885 ], [ 110.791035914752896, -7.547341801562268 ], [ 110.790258942922776, -7.54713177261393 ], [ 110.789387008911973, -7.546895848459894 ], [ 110.789366859127156, -7.546903018780387 ], [ 110.789334703359785, -7.546939382097342 ], [ 110.78921558054752, -7.547277264682159 ], [ 110.789066642302075, -7.547755213323727 ] ] } },
{ "type": "Feature", "properties": { "ID": "JLLG_72" }, "geometry": { "type": "LineString", "coordinates": [ [ 110.782660623174962, -7.555296574392218 ], [ 110.78299124093634, -7.555386813947835 ], [ 110.7832459966465, -7.555460784769084 ], [ 110.783565778734328, -7.555553636392993 ] ] } },
{ "type": "Feature", "properties": { "ID": "JLLG_35" }, "geometry": { "type": "LineString", "coordinates": [ [ 110.823438782776037, -7.582224206785225 ], [ 110.822580431786889, -7.581962897496357 ], [ 110.822349029179094, -7.581887944513542 ], [ 110.822118221436085, -7.581808232608608 ], [ 110.822045647867711, -7.581785032876114 ], [ 110.821617019699445, -7.581650288321937 ] ] } },
{ "type": "Feature", "properties": { "ID": "JLLG_36" }, "geometry": { "type": "LineString", "coordinates": [ [ 110.821712381340944, -7.581359909970616 ], [ 110.821617019699445, -7.581650288321937 ], [ 110.821552896919854, -7.581847054702736 ], [ 110.82149524568095, -7.582054833105401 ], [ 110.821435563266277, -7.582302208530526 ] ] } },
{ "type": "Feature", "properties": { "ID": "JLLG_37" }, "geometry": { "type": "LineString", "coordinates": [ [ 110.823528405554995, -7.577955370778833 ], [ 110.82339206243914, -7.577927531097179 ], [ 110.823283202098025, -7.577905045200417 ], [ 110.823136270381184, -7.577878990115548 ], [ 110.823046445727954, -7.577858764704944 ], [ 110.822842811453938, -7.577806832986655 ] ] } },
{ "type": "Feature", "properties": { "ID": "JLLG_77" }, "geometry": { "type": "LineString", "coordinates": [ [ 110.830287616702776, -7.584942797848156 ], [ 110.830237045466205, -7.585231493466312 ], [ 110.830224910246443, -7.585306327520787 ], [ 110.830215987294423, -7.585369383241781 ], [ 110.830191003012118, -7.585508581722558 ], [ 110.830169587917439, -7.585638262357684 ], [ 110.830149481536893, -7.585791648372694 ], [ 110.830131992536266, -7.585882305845389 ], [ 110.830124140333723, -7.585926920742946 ], [ 110.830107722092137, -7.586020790487499 ], [ 110.830095229952619, -7.586094315838596 ], [ 110.830084522404562, -7.586157490533475 ], [ 110.830082023977056, -7.586172838058136 ], [ 110.830068818001266, -7.586251003358516 ], [ 110.830047654258465, -7.586393714013648 ], [ 110.830040617333268, -7.586443797967077 ], [ 110.830037617340068, -7.586459797968581 ], [ 110.830007071146653, -7.586627910011615 ], [ 110.829981729947662, -7.586772819199076 ], [ 110.829967810134974, -7.586854553691254 ], [ 110.829964597869093, -7.586870258135417 ], [ 110.829944967360461, -7.586976620051774 ], [ 110.829922838419236, -7.587087264998922 ], [ 110.829910346278098, -7.587156864239336 ] ] } },
{ "type": "Feature", "properties": { "ID": "JLLG_80" }, "geometry": { "type": "LineString", "coordinates": [ [ 110.833504556106405, -7.573661716837713 ], [ 110.833598782756624, -7.573607465126481 ], [ 110.833647323758328, -7.573575342402946 ], [ 110.833813648072592, -7.573452562214626 ], [ 110.833965695621615, -7.573328354349755 ], [ 110.834424693622111, -7.572970483413528 ], [ 110.83461171924597, -7.572829143429405 ], [ 110.834759245819399, -7.572719212330644 ], [ 110.834894875088636, -7.572613088369438 ], [ 110.834934374138797, -7.572575968777699 ], [ 110.834960072316122, -7.572544520234706 ], [ 110.834933898246561, -7.572530283126192 ], [ 110.834922476834421, -7.572511723330413 ], [ 110.834917242020538, -7.572497446564451 ], [ 110.834911055422239, -7.572466989463543 ], [ 110.834906296500549, -7.57244557431443 ], [ 110.834897492495259, -7.572397112625206 ], [ 110.834894637142142, -7.572390450134377 ], [ 110.834888212597903, -7.572386167104648 ] ] } },
{ "type": "Feature", "properties": { "ID": "JLLG_79" }, "geometry": { "type": "LineString", "coordinates": [ [ 110.835905969008124, -7.571886238415333 ], [ 110.835907158733121, -7.571804147010311 ], [ 110.835910727910885, -7.571605462015435 ], [ 110.835901210057116, -7.57145317651133 ], [ 110.835840533785642, -7.5711593130804 ], [ 110.835601397972454, -7.571177159054141 ], [ 110.835049363061998, -7.571247353191346 ], [ 110.834544917367353, -7.571303270559213 ], [ 110.834185618783835, -7.571354428995281 ], [ 110.83385011480793, -7.57139487985518 ], [ 110.833509851908588, -7.571411536105283 ], [ 110.833206470652087, -7.571421053969859 ] ] } },
{ "type": "Feature", "properties": { "ID": "JLLG_81" }, "geometry": { "type": "LineString", "coordinates": [ [ 110.837477362845107, -7.582173969123591 ], [ 110.837219280436827, -7.582085897090044 ], [ 110.836899480892299, -7.581975966035094 ], [ 110.836820006900268, -7.581963354902628 ], [ 110.836668911133529, -7.581913386242102 ], [ 110.836390514209413, -7.581823918546134 ], [ 110.835980057206655, -7.581698045114887 ], [ 110.835215060532079, -7.58146247857952 ] ] } },
{ "type": "Feature", "properties": { "ID": "JLLG_82" }, "geometry": { "type": "LineString", "coordinates": [ [ 110.83530622022073, -7.581154702109061 ], [ 110.835925831829712, -7.581287000051598 ], [ 110.836082876247616, -7.581326974973812 ], [ 110.836161874349969, -7.581354576710191 ], [ 110.836255149217493, -7.581385985582003 ], [ 110.836530214897891, -7.581476405060708 ], [ 110.836980408901994, -7.581631545853645 ] ] } },
{ "type": "Feature", "properties": { "ID": "JLLG_83" }, "geometry": { "type": "LineString", "coordinates": [ [ 110.838458633000485, -7.580435451923451 ], [ 110.838580699348682, -7.5804875620906 ], [ 110.838624957323859, -7.580510404905819 ], [ 110.838642803283022, -7.580525395506049 ], [ 110.838764155794294, -7.580582502541485 ], [ 110.838839822656311, -7.580626760498416 ], [ 110.838991870213391, -7.580693861262859 ], [ 110.839181751196236, -7.580760962018259 ], [ 110.839254562700319, -7.580783804826653 ], [ 110.839348075514124, -7.580812358336521 ], [ 110.839416282626203, -7.580831930370799 ], [ 110.839453723577918, -7.580842339520077 ], [ 110.839546282619082, -7.580863930339809 ], [ 110.839593635880874, -7.580890880491484 ], [ 110.839613282624697, -7.580918930324267 ], [ 110.839620047906962, -7.580940849166544 ], [ 110.839608282643269, -7.580993930325934 ], [ 110.839563282687834, -7.581157930337952 ], [ 110.839546522640276, -7.581232095213479 ], [ 110.839528676698279, -7.58128777460568 ], [ 110.839514399944989, -7.581334174099128 ], [ 110.839455282793594, -7.581545930366708 ], [ 110.839376282874611, -7.581845930387815 ], [ 110.839363137754958, -7.581870143765197 ], [ 110.839275573686848, -7.582231345969454 ], [ 110.839258917473899, -7.582282504385423 ], [ 110.839216087215902, -7.58242884124868 ], [ 110.839194672090088, -7.582515691581193 ], [ 110.839182298909407, -7.582578509355141 ], [ 110.83914993827338, -7.582703193120468 ], [ 110.8391328061699, -7.582760300189152 ], [ 110.839104252667028, -7.582867851834146 ], [ 110.839064089386611, -7.583010220945498 ], [ 110.839018592160372, -7.583200024613597 ], [ 110.83894911196532, -7.583442729654708 ], [ 110.838897715654852, -7.58361500264498 ], [ 110.838894311464813, -7.583643509475328 ], [ 110.838888911661883, -7.58366294878676 ], [ 110.838772653304247, -7.58412539508168 ], [ 110.838740671398028, -7.584245083961668 ], [ 110.838677853690939, -7.584479222941443 ], [ 110.838609325301093, -7.58480854036351 ], [ 110.838521761210444, -7.585076943587985 ], [ 110.838487497007137, -7.585206386275867 ], [ 110.838457039928556, -7.585284432604742 ], [ 110.838416113226032, -7.585376755702232 ], [ 110.838391399358073, -7.585420431907394 ], [ 110.838425847221941, -7.585454800038665 ], [ 110.83838729997332, -7.58551833165706 ], [ 110.838371595546832, -7.585577580240473 ], [ 110.838358746481362, -7.585671093061731 ], [ 110.838362315679504, -7.585700360431487 ], [ 110.838329479137315, -7.585766747401872 ], [ 110.838309148700418, -7.585816135405287 ], [ 110.838273799800135, -7.585949490021829 ], [ 110.838257381537531, -7.586018018503283 ], [ 110.838244532466234, -7.586087260822125 ], [ 110.838223831179377, -7.586177204453763 ], [ 110.83819884687027, -7.586295701618706 ], [ 110.838188853146733, -7.586344242626034 ], [ 110.838168151862632, -7.586444893832237 ], [ 110.83813228153258, -7.586612883789138 ], [ 110.838119194513183, -7.586673560048203 ], [ 110.838091830729809, -7.586736615771952 ], [ 110.837994968225928, -7.587080247394474 ] ] } },
{ "type": "Feature", "properties": { "ID": "JLLG_15" }, "geometry": { "type": "LineString", "coordinates": [ [ 110.835826210512138, -7.586150816750012 ], [ 110.83596450665064, -7.586194093396991 ], [ 110.836026967496508, -7.586212534211153 ], [ 110.836246472752435, -7.586266666918969 ], [ 110.836358902273545, -7.586291651244077 ], [ 110.836603391868039, -7.586353517196719 ], [ 110.836780753712389, -7.586398379322103 ], [ 110.83694068043134, -7.586429659902501 ], [ 110.83701265911904, -7.586443341793454 ], [ 110.837229190048731, -7.586493310444847 ], [ 110.83727686070759, -7.586501466186121 ], [ 110.837363034716503, -7.586521269093209 ], [ 110.837432633943678, -7.586535545849725 ], [ 110.837521145916867, -7.586545612940467 ], [ 110.837828992617631, -7.586605779552484 ], [ 110.837859747148272, -7.586614662869344 ], [ 110.838053673200491, -7.586658088006132 ], [ 110.838116333456597, -7.58667147465177 ], [ 110.838255332500182, -7.586702108006976 ], [ 110.838375495268664, -7.586729471792046 ], [ 110.838417610338993, -7.586737226763069 ], [ 110.838664599750999, -7.58679074287328 ], [ 110.838777802596312, -7.586812197664458 ], [ 110.838940617199739, -7.586853203686638 ], [ 110.839048263744729, -7.586874176118694 ], [ 110.839131152519727, -7.586891314694308 ], [ 110.839494793611195, -7.586976102771588 ], [ 110.839565447245164, -7.58699198783161 ] ] } },
{ "type": "Feature", "properties": { "ID": "JLLG_74" }, "geometry": { "type": "LineString", "coordinates": [ [ 110.822680146405816, -7.58598482003541 ], [ 110.822979006708124, -7.586066197601813 ], [ 110.823395888276352, -7.586176128700271 ], [ 110.823717829350429, -7.586267024110708 ] ] } },
{ "type": "Feature", "properties": { "ID": "JLLG_34" }, "geometry": { "type": "LineString", "coordinates": [ [ 110.808374394266281, -7.579390684749494 ], [ 110.80857218696238, -7.579426079231942 ], [ 110.808674503785639, -7.5794486841115 ], [ 110.808790277671321, -7.579472130051646 ] ] } }
]
}
