{
"type": "FeatureCollection",
"name": "jaling",
"crs": { "type": "name", "properties": { "name": "urn:ogc:def:crs:OGC:1.3:CRS84" } },
"features": [
{ "type": "Feature", "properties": { "ID": "JLLG_57" }, "geometry": { "type": "LineString", "coordinates": [ [ 110.820988722358479, -7.533128592313552 ], [ 110.821262614935719, -7.533143799270736 ], [ 110.821694725054428, -7.533176159940457 ], [ 110.822231531457462, -7.533214231316469 ], [ 110.822566559566937, -7.533238977710925 ], [ 110.822709018363611, -7.533256010827951 ] ] } },
{ "type": "Feature", "properties": { "ID": "JLLG_59" }, "geometry": { "type": "LineString", "coordinates": [ [ 110.826440776164731, -7.532015736465681 ], [ 110.826379761691243, -7.531997443505035 ], [ 110.826064762453512, -7.531913443228524 ], [ 110.826011761807848, -7.531901443574564 ], [ 110.825812761624235, -7.531853443159626 ], [ 110.825596762455319, -7.531805443644038 ], [ 110.825261753236333, -7.531730201144982 ], [ 110.825021427674784, -7.531677853002813 ], [ 110.824853762365734, -7.531646443506364 ], [ 110.824785761927927, -7.531630443667856 ], [ 110.824600263076633, -7.531598141059088 ], [ 110.824407526735257, -7.53155650049144 ], [ 110.823981603215174, -7.531474409086762 ], [ 110.82387452746994, -7.531449424746218 ], [ 110.823805523100788, -7.531438717171639 ], [ 110.82355567969509, -7.531392317682064 ], [ 110.823490244517444, -7.531386369029582 ], [ 110.823147602132593, -7.531395886873572 ], [ 110.823053613422786, -7.531386369029582 ], [ 110.822859687350757, -7.531363764150012 ], [ 110.822759749988592, -7.53134115927043 ], [ 110.822720488882027, -7.531328072234903 ], [ 110.822519424426986, -7.531253119213219 ], [ 110.822373087575187, -7.531200771071057 ], [ 110.822149418240571, -7.531131766701904 ], [ 110.822101829020397, -7.531121059127444 ], [ 110.821938835941609, -7.531087746673292 ], [ 110.821647351968267, -7.531024690956666 ], [ 110.821407026406717, -7.530977101736548 ] ] } },
{ "type": "Feature", "properties": { "ID": "JLLG_55" }, "geometry": { "type": "LineString", "coordinates": [ [ 110.827006353225386, -7.530697855132867 ], [ 110.826953529191201, -7.53067072927734 ], [ 110.826377482502096, -7.530288247775324 ], [ 110.826292514923693, -7.530235287913345 ], [ 110.826108344641852, -7.530108224695589 ], [ 110.82599413051355, -7.530042551571847 ], [ 110.825941306479308, -7.530008287333318 ], [ 110.825708595192793, -7.529852670583516 ], [ 110.825587977340206, -7.529778567227875 ], [ 110.825216522656831, -7.52953822481151 ], [ 110.825097549606426, -7.5294586318409 ], [ 110.824960492652565, -7.529372971244759 ], [ 110.824790599136747, -7.529250191056795 ], [ 110.824643548446545, -7.52915596440102 ], [ 110.82459072441219, -7.52912455551564 ], [ 110.824543611084323, -7.529088863600572 ], [ 110.824519340582128, -7.529077442187706 ], [ 110.824500780786082, -7.529070303804747 ], [ 110.824483648666899, -7.529090291277148 ], [ 110.824473654930785, -7.529115989456109 ], [ 110.824459378164704, -7.529147398341308 ], [ 110.824435107662453, -7.529178807226572 ], [ 110.824419403219736, -7.529185945609638 ], [ 110.82439941574728, -7.529188800962793 ], [ 110.824309472121399, -7.529171668843615 ], [ 110.824266641823158, -7.529160247430814 ], [ 110.824037662324827, -7.529110250989275 ], [ 110.823797622608936, -7.529059502517609 ], [ 110.823582784730036, -7.529011769063967 ], [ 110.823381482329012, -7.528973221795749 ], [ 110.823348348334434, -7.528965548033966 ], [ 110.823213016489831, -7.528928963821042 ], [ 110.823095947008255, -7.528907548671953 ], [ 110.823053116710184, -7.528898982612354 ], [ 110.823017424795012, -7.528887561199437 ] ] } },
{ "type": "Feature", "properties": { "ID": "JLLG_58" }, "geometry": { "type": "LineString", "coordinates": [ [ 110.822250413006955, -7.529621418305577 ], [ 110.822223339170833, -7.52971309536663 ], [ 110.822160521400306, -7.5299686494787 ], [ 110.822094134438217, -7.530248474093033 ], [ 110.821999907782427, -7.530693195355084 ], [ 110.821989200207852, -7.53075387161074 ], [ 110.821997052429097, -7.530761723832106 ], [ 110.822019895356675, -7.530776699126967 ] ] } },
{ "type": "Feature", "properties": { "ID": "JLLG_54" }, "geometry": { "type": "LineString", "coordinates": [ [ 110.81094796054208, -7.541062169697801 ], [ 110.810574138150344, -7.54095323069084 ], [ 110.810488138681137, -7.540924231152076 ], [ 110.810166138221064, -7.540825231083375 ], [ 110.809739048704557, -7.540698300710238 ], [ 110.809349174018791, -7.540586918140506 ], [ 110.809307057558954, -7.540576353333678 ], [ 110.808910877301457, -7.540454144216382 ], [ 110.808479718967192, -7.540322084130662 ], [ 110.808085680224565, -7.540202159295919 ], [ 110.807721540980637, -7.540090777540419 ] ] } }
]
}
