{
"type": "FeatureCollection",
"name": "kaw",
"crs": { "type": "name", "properties": { "name": "urn:ogc:def:crs:OGC:1.3:CRS84" } },
"features": [
{ "type": "Feature", "properties": { "ID": "KAWS_6" }, "geometry": { "type": "LineString", "coordinates": [ [ 110.827577608569229, -7.549817688213633 ], [ 110.82755457528225, -7.549839697924066 ], [ 110.827110895488474, -7.549804226119242 ], [ 110.827096810095966, -7.549807729957691 ], [ 110.827081938466335, -7.549812488880635 ], [ 110.827071825758622, -7.549821411860066 ], [ 110.827051600344276, -7.54985412945042 ], [ 110.826902884074769, -7.550288975960522 ], [ 110.826715501572963, -7.550805913878232 ], [ 110.826707838551414, -7.550830930721744 ], [ 110.826703179545845, -7.550859605298889 ], [ 110.826710365920974, -7.550881746613514 ], [ 110.826730742054451, -7.55090748317993 ], [ 110.826942950989974, -7.551031423015406 ], [ 110.827334997716775, -7.551261937821828 ], [ 110.827445299425449, -7.551324208434425 ], [ 110.827674900022799, -7.551440974746834 ], [ 110.827846947870981, -7.551535579801723 ], [ 110.828021993324356, -7.551631382643881 ], [ 110.828192243941416, -7.551722396836436 ], [ 110.828288763342798, -7.551763720028405 ], [ 110.828478833449481, -7.551772171407505 ], [ 110.828538792102165, -7.551775784964464 ], [ 110.828696476480076, -7.551802771982042 ], [ 110.828986662299627, -7.551856137653866 ], [ 110.829092184519993, -7.551875325728244 ], [ 110.829615004117414, -7.551958100439396 ], [ 110.829702539768974, -7.551973691330518 ] ] } },
{ "type": "Feature", "properties": { "ID": "KAWS_6" }, "geometry": { "type": "LineString", "coordinates": [ [ 110.827635814315045, -7.549906584154596 ], [ 110.827539768520552, -7.549881775111582 ], [ 110.827221036601856, -7.549845389990113 ], [ 110.827130021051516, -7.549836737943414 ], [ 110.827100516124545, -7.549848573341635 ], [ 110.82708324142591, -7.54986436260107 ], [ 110.826941331838512, -7.55027823589678 ], [ 110.826752980409182, -7.550773943206663 ], [ 110.826734254899733, -7.550819170049776 ], [ 110.826728129694018, -7.550842502759108 ], [ 110.826729918913358, -7.550866556611127 ], [ 110.826745740760288, -7.550885589997799 ], [ 110.826951359663013, -7.550995526132978 ], [ 110.827309240806045, -7.551196708921701 ], [ 110.827389564871694, -7.551252984329566 ], [ 110.827684506422827, -7.551408668343574 ], [ 110.827884728372737, -7.551521234601365 ], [ 110.828023201895263, -7.551607449637465 ], [ 110.828193452512323, -7.551698463830021 ], [ 110.828298961749184, -7.551750560624735 ], [ 110.828469846044882, -7.551755414445572 ], [ 110.82851721260964, -7.551760219735223 ], [ 110.828664104874733, -7.551785407517469 ], [ 110.828820590063444, -7.551812394020191 ], [ 110.829073602301008, -7.551861556709301 ], [ 110.829616212688322, -7.551934167432987 ], [ 110.829703748339881, -7.551949758324099 ] ] } },
{ "type": "Feature", "properties": { "ID": "KAWS_1" }, "geometry": { "type": "LineString", "coordinates": [ [ 110.840201554029704, -7.570951813080245 ], [ 110.840111581499471, -7.57148278160891 ], [ 110.840199815325718, -7.571663544876573 ], [ 110.84019978437864, -7.571747572201918 ], [ 110.84019977301547, -7.571778425278692 ], [ 110.840201648908177, -7.571893307288216 ], [ 110.840195305346327, -7.57203269566401 ], [ 110.840217071276584, -7.572470161277587 ], [ 110.84021480585767, -7.572640035713882 ], [ 110.840214702192227, -7.572921493590148 ], [ 110.840212738647566, -7.573042117301705 ], [ 110.840203999704613, -7.573079116443694 ], [ 110.840197364461829, -7.573107210863816 ], [ 110.840174310480663, -7.573183789648901 ], [ 110.84012080617056, -7.57335027920779 ], [ 110.8400403651803, -7.57359556770843 ], [ 110.839967735861904, -7.573795983811165 ], [ 110.839906555117167, -7.573953962094 ], [ 110.839841719563225, -7.574157971053828 ], [ 110.839791417378436, -7.574295798994997 ], [ 110.839701892107811, -7.574464267973309 ], [ 110.839551884418057, -7.574733464220383 ], [ 110.839445685637557, -7.574905746030387 ] ] } },
{ "type": "Feature", "properties": { "ID": "KAWS_3" }, "geometry": { "type": "LineString", "coordinates": [ [ 110.841331745068899, -7.572943120528971 ], [ 110.841118750958032, -7.572957881660357 ], [ 110.840966282424461, -7.572964000770981 ] ] } },
{ "type": "Feature", "properties": { "ID": "KAWS_4" }, "geometry": { "type": "LineString", "coordinates": [ [ 110.841397890877062, -7.573089138768073 ], [ 110.841178657910035, -7.573111077696409 ], [ 110.840963513119519, -7.573121525942335 ] ] } }
]
}
